{
"type": "FeatureCollection",
"name": "Perimetro_urbano_vigente_v2",
"crs": { "type": "name", "properties": { "name": "urn:ogc:def:crs:OGC:1.3:CRS84" } },
"features": [
{"type":"Feature","properties":{"Id":0,"area":50701300.0,"descricao":"Perimentro urbano Vigente"},"geometry":{"type":"MultiPolygon","coordinates":[[[[-58.842977791826883,-13.527412309283179],[-58.73814974096743,-13.529179259312683],[-58.738374838122169,-13.541298467283307],[-58.738812293634098,-13.566370941755888],[-58.780190090478428,-13.565675301220498],[-58.858421924687207,-13.564341166494783],[-58.846690364953197,-13.539611916751673],[-58.847475270259281,-13.53435680216136],[-58.842977791826883,-13.527412309283179]]]]}}
]
}
